HAWK-7A                 
1 56191U 23054P   26068.68910991  .00007758  00000+0  30248-3 0  9997
2 56191  97.2827 318.5579 0004249  51.2619 308.8999 15.26207271161849
STARLINK-35417          
1 66335U 25253S   26068.42540875  .00028330  00000+0  10346-2 0  9998
2 66335  42.9984 214.0338 0002869 291.1795  68.8750 15.27594286 20208
